SHIYAN-1 (SY-1)         
1 28220U 04012A   26068.73650539  .00016393  00000+0  54854-3 0  9991
2 28220  97.8764 140.5238 0005873  23.6952 336.4557 15.31043463195862
STARLINK-35785          
1 67176U 25303P   26067.70032128  .00037067  00000+0  13493-2 0  9998
2 67176  42.9980 316.3187 0001646 260.8630  99.2036 15.27590097 12582
